{"type": "Feature", "geometry": {"type": "Point", "coordinates": ["-67.12", "4.15"]}, "properties": {"localTime": "Wed Jan 24 2024 17:27:41 GMT-0500 (hora est\u00e1ndar de Colombia)", "julianTime": "1706135261", "utcTime": "5:27:50 PM", "altitude": "487.99", "elevation": "-46.2", "TLE": {"Norad_Id": 56205, "International_Classification": "Unclassified", "International_Designation": "23054AD", "Epoch_Time_(ISO)": "2024-01-24T14:51:03Z", "First_Derivative_Mean_Motion": 0.00031717000000000003, "Second_Derivative_Mean_Motion": 0.0, "Inclination": 97.386, "Right_Ascension_of_the_Ascending_Node": 282.5739, "Eccentricity": 0.0011587, "Argument_of_Perigee": 313.6874, "Mean_Anomaly": 46.3406, "Mean_Motion": 15.301200180000004, "Revolution_Number_at_Epoch": 4397}}}