FACSAT-2                
1 56205U 23054AD  24024.61877944  .00031717  00000+0  10853-2 0  9997
2 56205  97.3860 282.5739 0011587 313.6874  46.3406 15.30120018 43970
